CTC1_L_00535094-01
1 45689U 25125OT  26037.47809028  .00000000  00000+0  00000-0 0  9992
2 45689  99.0000 223.2000 0000000   0.0000  86.4000 13.98209858    13
CTC1_L_00535094-02
1 45690U 23709DU  26037.47809028  .00000000  00000+0  00000-0 0  9990
2 45690  99.0000 223.2000 0000000   0.0000 266.4000 13.98209858    15
CTC1_L_00535095-01
1 45691U 25240NF  26037.47809028  .00000000  00000+0  00000-0 0  9993
2 45691  99.0000 225.6000 0000000   0.0000  91.2000 13.98209858    16
CTC1_L_00535095-02
1 45692U 24438YP  26037.47809028  .00000000  00000+0  00000-0 0  9992
2 45692  99.0000 225.6000 0000000   0.0000 271.2000 13.98209858    17
CTC1_L_00535096-01
1 45693U 24005WH  26037.47809028  .00000000  00000+0  00000-0 0  9993
2 45693  99.0000 228.0000 0000000   0.0000  96.0000 13.98209858    18
CTC1_L_00535096-02
1 45694U 24956PR  26037.47809028  .00000000  00000+0  00000-0 0  9999
2 45694  99.0000 228.0000 0000000   0.0000 276.0000 13.98209858    19
CTC1_L_00535097-01
1 45695U 26777IY  26037.47809028  .00000000  00000+0  00000-0 0  9993
2 45695  99.0000 230.4000 0000000   0.0000 100.8000 13.98209858    11
CTC1_L_00535097-02
1 45696U 24135NJ  26037.47809028  .00000000  00000+0  00000-0 0  9990
2 45696  99.0000 230.4000 0000000   0.0000 280.8000 13.98209858    11
CTC1_L_00535098-01
1 45697U 22893SH  26037.47809028  .00000000  00000+0  00000-0 0  9990
2 45697  99.0000 232.8000 0000000   0.0000 105.6000 13.98209858    12
CTC1_L_00535098-02
1 45698U 24720NA  26037.47809028  .00000000  00000+0  00000-0 0  9992
2 45698  99.0000 232.8000 0000000   0.0000 285.6000 13.98209858    12
CTC1_L_00535099-01
1 45699U 26321KP  26037.47809028  .00000000  00000+0  00000-0 0  9992
2 45699  99.0000 235.2000 0000000   0.0000 110.4000 13.98209858    15
CTC1_L_00535099-02
1 45700U 22739BN  26037.47809028  .00000000  00000+0  00000-0 0  9994
2 45700  99.0000 235.2000 0000000   0.0000 290.4000 13.98209858    17
CTC1_L_00535100-01
1 45701U 23671CG  26037.47809028  .00000000  00000+0  00000-0 0  9991
2 45701  99.0000 237.6000 0000000   0.0000 115.2000 13.98209858    18
CTC1_L_00535100-02
1 45702U 25734TE  26037.47809028  .00000000  00000+0  00000-0 0  9994
2 45702  99.0000 237.6000 0000000   0.0000 295.2000 13.98209858    18
CTC1_L_00535101-01
1 45703U 24844FY  26037.47809028  .00000000  00000+0  00000-0 0  9996
2 45703  99.0000 240.0000 0000000   0.0000 120.0000 13.98209858    12
CTC1_L_00535101-02
1 45704U 22948LD  26037.47809028  .00000000  00000+0  00000-0 0  9990
2 45704  99.0000 240.0000 0000000   0.0000 300.0000 13.98209858    13
CTC1_L_00535102-01
1 45705U 22914SM  26037.47809028  .00000000  00000+0  00000-0 0  9994
2 45705  99.0000 242.4000 0000000   0.0000 124.8000 13.98209858    12
CTC1_L_00535102-02
1 45706U 23904NF  26037.47809028  .00000000  00000+0  00000-0 0  9995
2 45706  99.0000 242.4000 0000000   0.0000 304.8000 13.98209858    13
CTC1_L_00535103-01
1 45707U 23861OL  26037.47809028  .00000000  00000+0  00000-0 0  9998
2 45707  99.0000 244.8000 0000000   0.0000 129.6000 13.98209858    13
CTC1_L_00535103-02
1 45708U 24260QN  26037.47809028  .00000000  00000+0  00000-0 0  9993
2 45708  99.0000 244.8000 0000000   0.0000 309.6000 13.98209858    14
CTC1_L_00535104-01
1 45709U 24163TO  26037.47809028  .00000000  00000+0  00000-0 0  9996
2 45709  99.0000 247.2000 0000000   0.0000 134.4000 13.98209858    16
CTC1_L_00535104-02
1 45710U 25338QC  26037.47809028  .00000000  00000+0  00000-0 0  9993
2 45710  99.0000 247.2000 0000000   0.0000 314.4000 13.98209858    18
CTC1_L_00535105-01
1 45711U 23268MO  26037.47809028  .00000000  00000+0  00000-0 0  9994
2 45711  99.0000 249.6000 0000000   0.0000 139.2000 13.98209858    18
CTC1_L_00535105-02
1 45712U 25189QI  26037.47809028  .00000000  00000+0  00000-0 0  9999
2 45712  99.0000 249.6000 0000000   0.0000 319.2000 13.98209858    19
CTC1_L_00535106-01
1 45713U 24279YR  26037.47809028  .00000000  00000+0  00000-0 0  9999
2 45713  99.0000 252.0000 0000000   0.0000 144.0000 13.98209858    12
CTC1_L_00535106-02
1 45714U 25646BG  26037.47809028  .00000000  00000+0  00000-0 0  9999
2 45714  99.0000 252.0000 0000000   0.0000 324.0000 13.98209858    13
CTC1_L_00535107-01
1 45715U 25108DG  26037.47809028  .00000000  00000+0  00000-0 0  9993
2 45715  99.0000 254.4000 0000000   0.0000 148.8000 13.98209858    12
CTC1_L_00535107-02
1 45716U 24744YC  26037.47809028  .00000000  00000+0  00000-0 0  9999
2 45716  99.0000 254.4000 0000000   0.0000 328.8000 13.98209858    13
CTC1_L_00535108-01
1 45717U 25744GY  26037.47809028  .00000000  00000+0  00000-0 0  9991
2 45717  99.0000 256.8000 0000000   0.0000 153.6000 13.98209858    14
CTC1_L_00535108-02
1 45718U 24152WL  26037.47809028  .00000000  00000+0  00000-0 0  9994
2 45718  99.0000 256.8000 0000000   0.0000 333.6000 13.98209858    15
CTC1_L_00535109-01
1 45719U 24245LP  26037.47809028  .00000000  00000+0  00000-0 0  9998
2 45719  99.0000 259.2000 0000000   0.0000 158.4000 13.98209858    16
CTC1_L_00535109-02
1 45720U 26570OP  26037.47809028  .00000000  00000+0  00000-0 0  9993
2 45720  99.0000 259.2000 0000000   0.0000 338.4000 13.98209858    18
CTC1_L_00535110-01
1 45721U 24562CK  26037.47809028  .00000000  00000+0  00000-0 0  9993
2 45721  99.0000 261.6000 0000000   0.0000 163.2000 13.98209858    10
CTC1_L_00535110-02
1 45722U 24170WX  26037.47809028  .00000000  00000+0  00000-0 0  9999
2 45722  99.0000 261.6000 0000000   0.0000 343.2000 13.98209858    11
CTC1_L_00535111-01
1 45723U 23526DQ  26037.47809028  .00000000  00000+0  00000-0 0  9994
2 45723  99.0000 264.0000 0000000   0.0000 168.0000 13.98209858    12
CTC1_L_00535111-02
1 45724U 24161PN  26037.47809028  .00000000  00000+0  00000-0 0  9991
2 45724  99.0000 264.0000 0000000   0.0000 348.0000 13.98209858    13
CTC1_L_00535112-01
1 45725U 22411TX  26037.47809028  .00000000  00000+0  00000-0 0  9998
2 45725  99.0000 266.4000 0000000   0.0000 172.8000 13.98209858    13
CTC1_L_00535112-02
1 45726U 22947FI  26037.47809028  .00000000  00000+0  00000-0 0  9993
2 45726  99.0000 266.4000 0000000   0.0000 352.8000 13.98209858    14
CTC1_L_00535113-01
1 45727U 23733EJ  26037.47809028  .00000000  00000+0  00000-0 0  9998
2 45727  99.0000 268.8000 0000000   0.0000 177.6000 13.98209858    14
CTC1_L_00535113-02
1 45728U 23664LN  26037.47809028  .00000000  00000+0  00000-0 0  9992
2 45728  99.0000 268.8000 0000000   0.0000 357.6000 13.98209858    15
CTC1_L_00535114-01
1 45729U 22692DC  26037.47809028  .00000000  00000+0  00000-0 0  9993
2 45729  99.0000 271.2000 0000000   0.0000 182.4000 13.98209858    18
CTC1_L_00535114-02
1 45730U 22856WI  26037.47809028  .00000000  00000+0  00000-0 0  9997
2 45730  99.0000 271.2000 0000000   0.0000   2.4000 13.98209858    11
CTC1_L_00535115-01
1 45731U 25532EJ  26037.47809028  .00000000  00000+0  00000-0 0  9992
2 45731  99.0000 273.6000 0000000   0.0000 187.2000 13.98209858    10
CTC1_L_00535115-02
1 45732U 24311PB  26037.47809028  .00000000  00000+0  00000-0 0  9997
2 45732  99.0000 273.6000 0000000   0.0000   7.2000 13.98209858    12
CTC1_L_00535116-01
1 45733U 26496XA  26037.47809028  .00000000  00000+0  00000-0 0  9994
2 45733  99.0000 276.0000 0000000   0.0000 192.0000 13.98209858    13
CTC1_L_00535116-02
1 45734U 23712OR  26037.47809028  .00000000  00000+0  00000-0 0  9993
2 45734  99.0000 276.0000 0000000   0.0000  12.0000 13.98209858    15
CTC1_L_00535117-01
1 45735U 22192WL  26037.47809028  .00000000  00000+0  00000-0 0  9995
2 45735  99.0000 278.4000 0000000   0.0000 196.8000 13.98209858    13
CTC1_L_00535117-02
1 45736U 24529PK  26037.47809028  .00000000  00000+0  00000-0 0  9992
2 45736  99.0000 278.4000 0000000   0.0000  16.8000 13.98209858    15
CTC1_L_00535118-01
1 45737U 25471RT  26037.47809028  .00000000  00000+0  00000-0 0  9990
2 45737  99.0000 280.8000 0000000   0.0000 201.6000 13.98209858    17
CTC1_L_00535118-02
1 45738U 26327VD  26037.47809028  .00000000  00000+0  00000-0 0  9992
2 45738  99.0000 280.8000 0000000   0.0000  21.6000 13.98209858    18
CTC1_L_00535119-01
1 45739U 24584RE  26037.47809028  .00000000  00000+0  00000-0 0  9996
2 45739  99.0000 283.2000 0000000   0.0000 206.4000 13.98209858    19
CTC1_L_00535119-02
1 45740U 24212LY  26037.47809028  .00000000  00000+0  00000-0 0  9996
2 45740  99.0000 283.2000 0000000   0.0000  26.4000 13.98209858    11
CTC1_L_00535120-01
1 45741U 22089FA  26037.47809028  .00000000  00000+0  00000-0 0  9997
2 45741  99.0000 285.6000 0000000   0.0000 211.2000 13.98209858    12
CTC1_L_00535120-02
1 45742U 23921JA  26037.47809028  .00000000  00000+0  00000-0 0  9994
2 45742  99.0000 285.6000 0000000   0.0000  31.2000 13.98209858    13
CTC1_L_00535121-01
1 45743U 25339IJ  26037.47809028  .00000000  00000+0  00000-0 0  9990
2 45743  99.0000 288.0000 0000000   0.0000 216.0000 13.98209858    14
CTC1_L_00535121-02
1 45744U 25364CC  26037.47809028  .00000000  00000+0  00000-0 0  9999
2 45744  99.0000 288.0000 0000000   0.0000  36.0000 13.98209858    15
CTC1_L_00535122-01
1 45745U 23602YW  26037.47809028  .00000000  00000+0  00000-0 0  9993
2 45745  99.0000 290.4000 0000000   0.0000 220.8000 13.98209858    16
CTC1_L_00535122-02
1 45746U 23268HW  26037.47809028  .00000000  00000+0  00000-0 0  9992
2 45746  99.0000 290.4000 0000000   0.0000  40.8000 13.98209858    17
CTC1_L_00535123-01
1 45747U 24679EJ  26037.47809028  .00000000  00000+0  00000-0 0  9990
2 45747  99.0000 292.8000 0000000   0.0000 225.6000 13.98209858    17
CTC1_L_00535123-02
1 45748U 23375WQ  26037.47809028  .00000000  00000+0  00000-0 0  9993
2 45748  99.0000 292.8000 0000000   0.0000  45.6000 13.98209858    18
CTC1_L_00535124-01
1 45749U 24008UU  26037.47809028  .00000000  00000+0  00000-0 0  9998
2 45749  99.0000 295.2000 0000000   0.0000 230.4000 13.98209858    10
CTC1_L_00535124-02
1 45750U 24546PZ  26037.47809028  .00000000  00000+0  00000-0 0  9997
2 45750  99.0000 295.2000 0000000   0.0000  50.4000 13.98209858    12
